{
"type": "FeatureCollection",
"name": "communes",
"crs": { "type": "name", "properties": { "name": "urn:ogc:def:crs:OGC:1.3:CRS84" } },
"features": [
{ "type": "Feature", "properties": { "name": "Alba", "docg": "Barbaresco, (partial — San Rocco Seno d'Elvio only)", "region": "Piemonte" }, "geometry": { "type": "Polygon", "coordinates": [ [ [ 8.065265906663321, 44.728215333746668 ], [ 8.066678038850258, 44.725604884603989 ], [ 8.061612451048928, 44.718913016926507 ], [ 8.05884930576811, 44.713484399244159 ], [ 8.057296442218915, 44.710109249320176 ], [ 8.057734194298023, 44.70992381140266 ], [ 8.059103970523566, 44.708850332073766 ], [ 8.059878019956967, 44.707969991980477 ], [ 8.061484469973005, 44.704791882522606 ], [ 8.062051443875186, 44.702244380686579 ], [ 8.061880078249775, 44.700568537534487 ], [ 8.061233677852272, 44.698951793748662 ], [ 8.060844017139621, 44.697314668672242 ], [ 8.060447108263068, 44.694151603207388 ], [ 8.061002610041925, 44.691405945731795 ], [ 8.061498916919298, 44.691036857100848 ], [ 8.069237756016504, 44.689186770673054 ], [ 8.072566332466891, 44.68885826070936 ], [ 8.072697583163341, 44.688787309106608 ], [ 8.073976423140991, 44.683148723813055 ], [ 8.073869961332168, 44.68060018764875 ], [ 8.084618889427768, 44.671279396928711 ], [ 8.088798242903701, 44.665267718118542 ], [ 8.091639869315642, 44.662301572477013 ], [ 8.092338778674717, 44.661744475688373 ], [ 8.095377794714459, 44.659774565686199 ], [ 8.098520683245958, 44.658084469240748 ], [ 8.095624204505068, 44.653254285106854 ], [ 8.093417831259044, 44.65265164019592 ], [ 8.089730887289077, 44.651037881205461 ], [ 8.089340833779959, 44.650778203088812 ], [ 8.088860278669561, 44.649648483955332 ], [ 8.089030480303016, 44.649204815649121 ], [ 8.089958804992255, 44.648307481671864 ], [ 8.090090079424005, 44.648184518694293 ], [ 8.090235170318698, 44.648048615652499 ], [ 8.094623483110512, 44.645000175391694 ], [ 8.092788335954122, 44.642217364097569 ], [ 8.089865746643683, 44.640146060151459 ], [ 8.089436542039369, 44.639877077291153 ], [ 8.08839299205674, 44.639382626971802 ], [ 8.087571042016993, 44.639006955666623 ], [ 8.086963179665368, 44.638772536834807 ], [ 8.084424932086424, 44.637991500153312 ], [ 8.084078302865652, 44.637984221186635 ], [ 8.083069942321879, 44.638264206205108 ], [ 8.07814008175443, 44.640196053817938 ], [ 8.077377123273836, 44.640775044643753 ], [ 8.073984270675853, 44.643065694474373 ], [ 8.066082435034076, 44.647133449142189 ], [ 8.06390303498077, 44.647385686739113 ], [ 8.060631297326939, 44.647561370778035 ], [ 8.058467330026534, 44.647467037422011 ], [ 8.056990223025176, 44.64735132856957 ], [ 8.055418317323323, 44.648679677434316 ], [ 8.055252704704566, 44.648831353910559 ], [ 8.053993666194602, 44.650256812719732 ], [ 8.054347696594727, 44.650952939941291 ], [ 8.056231600594991, 44.652931303077025 ], [ 8.056349128132354, 44.65305453578717 ], [ 8.056426314455061, 44.653135205426693 ], [ 8.056948490778106, 44.653477117213711 ], [ 8.057304067606728, 44.653691616155484 ], [ 8.057813198134875, 44.653895964935394 ], [ 8.057899674141991, 44.653930587016326 ], [ 8.058905724314958, 44.654231458339659 ], [ 8.06299651015482, 44.655300349056013 ], [ 8.061908068527915, 44.656952354524194 ], [ 8.05554995812413, 44.661887267468579 ], [ 8.055130469815794, 44.662158377456457 ], [ 8.051246365226689, 44.663553074072802 ], [ 8.050797833338105, 44.663477332709839 ], [ 8.050681690682518, 44.663451873450583 ], [ 8.043608586180206, 44.66529884321023 ], [ 8.040137935897885, 44.672885857829144 ], [ 8.039790339678525, 44.673819043234545 ], [ 8.03968285208232, 44.674062882980188 ], [ 8.039642059327759, 44.674155365760399 ], [ 8.030326108608604, 44.671002337132236 ], [ 8.028992183012669, 44.670518394108896 ], [ 8.020012583400769, 44.666381601347844 ], [ 8.01935933187289, 44.662099862101215 ], [ 8.010503043306809, 44.65866110694359 ], [ 8.010674347584326, 44.659135227780126 ], [ 8.010647589204092, 44.659504082837252 ], [ 8.010561869532156, 44.659768924990722 ], [ 8.010536627902436, 44.65981465658254 ], [ 8.010419167911246, 44.660024256458179 ], [ 8.004843439939703, 44.66553438593867 ], [ 8.004385422447736, 44.665886373542762 ], [ 8.00284740241255, 44.667047748905155 ], [ 8.002183976203693, 44.667528078425072 ], [ 8.001992855263712, 44.667661459264359 ], [ 7.998906456271631, 44.668534680084818 ], [ 7.998654832404761, 44.668563297435071 ], [ 7.99846563277222, 44.668584814149632 ], [ 7.996517332549265, 44.668495701095807 ], [ 7.993776025491451, 44.667976724072631 ], [ 7.988721082256964, 44.671082615234354 ], [ 7.988357589869427, 44.671196431832797 ], [ 7.987918116928921, 44.671323055054422 ], [ 7.98299912489138, 44.665589323265401 ], [ 7.980595828371703, 44.662183287384345 ], [ 7.980281560011734, 44.661676465412206 ], [ 7.98027438692094, 44.661640753484889 ], [ 7.980221333122801, 44.661333958978865 ], [ 7.980218259966267, 44.661298297161601 ], [ 7.980192569235756, 44.660973611547249 ], [ 7.980131481233274, 44.655094054460989 ], [ 7.978911253318842, 44.647958579218319 ], [ 7.9775381848899, 44.64617736156351 ], [ 7.975891323526848, 44.647082708099376 ], [ 7.971670420254084, 44.648721508439529 ], [ 7.968518703121084, 44.65097519034056 ], [ 7.966551012940215, 44.652411275853105 ], [ 7.966496391031767, 44.652554280697515 ], [ 7.966366198543384, 44.652895705260171 ], [ 7.966398550022367, 44.659859348965028 ], [ 7.967665275385542, 44.660419936403095 ], [ 7.981928657336545, 44.668195500359396 ], [ 7.982138833756267, 44.668530453113057 ], [ 7.982549584724381, 44.670874725774361 ], [ 7.982754803291144, 44.672404278678641 ], [ 7.983691556555931, 44.675759703554839 ], [ 7.987519446828562, 44.685578867848811 ], [ 7.989882799916945, 44.686701090173372 ], [ 7.993671048300974, 44.689306551238275 ], [ 7.993980486947084, 44.689543329282664 ], [ 7.993673633367614, 44.690706437394496 ], [ 7.985943081465888, 44.690660563293115 ], [ 7.984060600288001, 44.694796883529087 ], [ 7.978470044208425, 44.701000643107136 ], [ 7.977391745884324, 44.701643652395795 ], [ 7.977088620996408, 44.701837315532032 ], [ 7.976974864923918, 44.701909998110054 ], [ 7.969074194280237, 44.715918529722259 ], [ 7.968574725668751, 44.719537456649455 ], [ 7.977448142341308, 44.721494232374901 ], [ 7.983206723410558, 44.723229083801385 ], [ 7.984431287466258, 44.72340202112418 ], [ 7.984557497259501, 44.723410593805255 ], [ 7.984893618285691, 44.723433142428689 ], [ 7.988201253684256, 44.722679284913376 ], [ 7.993790546141568, 44.723664916296748 ], [ 8.001968979778598, 44.727297099718463 ], [ 8.002426719352636, 44.727436122703182 ], [ 8.002688252014902, 44.727487927132039 ], [ 8.004091503619659, 44.727765735424072 ], [ 8.00555524058716, 44.727877497249942 ], [ 8.018317330735089, 44.725066698891489 ], [ 8.019299202113789, 44.724197402674811 ], [ 8.020983186827477, 44.722667976838984 ], [ 8.021230544592024, 44.722436044144018 ], [ 8.0256295945614, 44.721465398717548 ], [ 8.032672782278016, 44.720425478552578 ], [ 8.044251021379523, 44.719646641391968 ], [ 8.050446568328777, 44.72171044353319 ], [ 8.053124671306476, 44.722966000124856 ], [ 8.055118624233149, 44.726209836245665 ], [ 8.05587916371179, 44.727678810492826 ], [ 8.056234689312161, 44.728657698710045 ], [ 8.056011856544243, 44.729330359249715 ], [ 8.055683042482471, 44.730328555222599 ], [ 8.055710524236133, 44.730524108047916 ], [ 8.055723669577961, 44.730607846683682 ], [ 8.055745994582718, 44.730697035616878 ], [ 8.055845067402906, 44.731090589933061 ], [ 8.055992997798182, 44.731420201108065 ], [ 8.056019423418848, 44.731473414518156 ], [ 8.056339189888339, 44.732107353491827 ], [ 8.057503179347712, 44.733800463295651 ], [ 8.057730993257028, 44.73406340467497 ], [ 8.057971313792926, 44.73430845669192 ], [ 8.058585761863236, 44.734336035821158 ], [ 8.059563166047772, 44.734227052435052 ], [ 8.060167811603286, 44.734128510540351 ], [ 8.062802260942119, 44.731534977068868 ], [ 8.065010592389728, 44.729194479268983 ], [ 8.065265906663321, 44.728215333746668 ] ] ] } },
{ "type": "Feature", "properties": { "name": "Barbaresco", "docg": "Barbaresco", "region": "Piemonte" }, "geometry": { "type": "Polygon", "coordinates": [ [ [ 8.093776143833033, 44.734733230038884 ], [ 8.093713596210625, 44.731257869244111 ], [ 8.093162906360709, 44.727909142614287 ], [ 8.092030794791841, 44.724650337322842 ], [ 8.090173415732968, 44.7234382346915 ], [ 8.089403701096572, 44.721870206756684 ], [ 8.088760688687138, 44.720276187131311 ], [ 8.088423795488239, 44.719215729494032 ], [ 8.08783912636305, 44.717050501711917 ], [ 8.087870081050031, 44.716700854149174 ], [ 8.087874562507446, 44.71665468981945 ], [ 8.088987781456618, 44.712869087845839 ], [ 8.089877483598046, 44.712330728378596 ], [ 8.09036518986961, 44.712061776660981 ], [ 8.090979449054753, 44.711579633278831 ], [ 8.091183710577361, 44.711207675932499 ], [ 8.091263463084912, 44.71071894798488 ], [ 8.091268154271912, 44.710686522762309 ], [ 8.090822513592197, 44.709278297688911 ], [ 8.090659720510962, 44.708847879946681 ], [ 8.090591020683561, 44.708668798690155 ], [ 8.090173930404246, 44.70794528195178 ], [ 8.089924237355881, 44.707641724470477 ], [ 8.089687468312077, 44.707369755262455 ], [ 8.088928670194116, 44.706503987003614 ], [ 8.083619462728134, 44.705691803758207 ], [ 8.07060104720852, 44.704992465454822 ], [ 8.065876106062651, 44.70270783516888 ], [ 8.061880078249775, 44.700568537534487 ], [ 8.062051443875186, 44.702244380686579 ], [ 8.061484469973005, 44.704791882522606 ], [ 8.059878019956967, 44.707969991980477 ], [ 8.059103970523566, 44.708850332073766 ], [ 8.057734194298023, 44.70992381140266 ], [ 8.057296442218915, 44.710109249320176 ], [ 8.05884930576811, 44.713484399244159 ], [ 8.061612451048928, 44.718913016926507 ], [ 8.066678038850258, 44.725604884603989 ], [ 8.065265906663321, 44.728215333746668 ], [ 8.065010592389728, 44.729194479268983 ], [ 8.073782239838369, 44.734977910865098 ], [ 8.083976763978544, 44.735145137967926 ], [ 8.085248907931298, 44.736196700761667 ], [ 8.087474031494164, 44.737937358060364 ], [ 8.090554239793468, 44.739879423684087 ], [ 8.091134707790758, 44.740091089414221 ], [ 8.091854885391049, 44.74022734802071 ], [ 8.092434693428892, 44.739421760574245 ], [ 8.093318914945117, 44.737371774615838 ], [ 8.093511944539221, 44.736738642670787 ], [ 8.093727217723595, 44.735565551375707 ], [ 8.093776143833033, 44.734733230038884 ] ] ] } },
{ "type": "Feature", "properties": { "name": "Barolo", "docg": "Barolo", "region": "Piemonte" }, "geometry": { "type": "Polygon", "coordinates": [ [ [ 7.956805662854555, 44.626746074370281 ], [ 7.959692829647776, 44.626426583658315 ], [ 7.960438648615002, 44.620352229805697 ], [ 7.958182753581157, 44.617689476390339 ], [ 7.948110953722364, 44.60491719317195 ], [ 7.947891689531737, 44.604564077378264 ], [ 7.946451295765449, 44.5995904382088 ], [ 7.945624703069138, 44.600991712674961 ], [ 7.93531174239206, 44.606689105006545 ], [ 7.930501517796106, 44.608570679658044 ], [ 7.930306757813414, 44.608637592480285 ], [ 7.929377942967445, 44.608956250869248 ], [ 7.928038078427869, 44.609258747431014 ], [ 7.924598057964839, 44.609554991399989 ], [ 7.919005053068251, 44.607639119724318 ], [ 7.922063356622695, 44.619177214418187 ], [ 7.926016362807403, 44.620231736827627 ], [ 7.931225639052093, 44.621779520387832 ], [ 7.943728356102422, 44.625645364902816 ], [ 7.947867565645365, 44.627493082322474 ], [ 7.955359706293774, 44.627840929557436 ], [ 7.955515194092747, 44.627812378882673 ], [ 7.955662880527886, 44.627785180848072 ], [ 7.956122288475686, 44.627429291285672 ], [ 7.956667460944364, 44.626980146069961 ], [ 7.956805662854555, 44.626746074370281 ] ] ] } },
{ "type": "Feature", "properties": { "name": "Castiglione Falletto", "docg": "Barolo", "region": "Piemonte" }, "geometry": { "type": "Polygon", "coordinates": [ [ [ 7.975891323526848, 44.647082708099376 ], [ 7.9775381848899, 44.64617736156351 ], [ 7.978113044668187, 44.645700595962353 ], [ 7.979838610071032, 44.642781235692297 ], [ 7.983004183948245, 44.636750855656359 ], [ 7.98619115515157, 44.625116554932561 ], [ 7.986242245141789, 44.62481994037816 ], [ 7.986049539876456, 44.622175992448618 ], [ 7.985946068123844, 44.621895991561281 ], [ 7.985391885908133, 44.621548952471997 ], [ 7.982399339812527, 44.620532018779905 ], [ 7.974285836135494, 44.618042246356005 ], [ 7.965042803787981, 44.616926566990927 ], [ 7.960438648615002, 44.620352229805697 ], [ 7.959692829647776, 44.626426583658315 ], [ 7.96056873099964, 44.629153292987738 ], [ 7.962129180154343, 44.632962052854296 ], [ 7.962289715287826, 44.633283097302815 ], [ 7.962353821281569, 44.633400697725378 ], [ 7.963481812096665, 44.635413987069263 ], [ 7.964264522357545, 44.636154786445587 ], [ 7.965481429453301, 44.636719462238815 ], [ 7.966372678574846, 44.637074127152438 ], [ 7.967074409644503, 44.637274027093035 ], [ 7.967542326401425, 44.637440302183343 ], [ 7.96894079426316, 44.638074974160169 ], [ 7.969614624218716, 44.638381719840361 ], [ 7.969971401715885, 44.638596502946164 ], [ 7.970608779391027, 44.639097413377243 ], [ 7.972577745803497, 44.641860856612617 ], [ 7.972827092619647, 44.642223189594283 ], [ 7.972845345104979, 44.642437558605792 ], [ 7.972855601494773, 44.64259707024101 ], [ 7.972852887888849, 44.642952639882978 ], [ 7.971670420254084, 44.648721508439529 ], [ 7.975891323526848, 44.647082708099376 ] ] ] } },
{ "type": "Feature", "properties": { "name": "Cherasco", "docg": "Barolo", "region": "Piemonte" }, "geometry": { "type": "Polygon", "coordinates": [ [ [ 7.769216856927498, 44.690578354131169 ], [ 7.769859372872682, 44.685917569174528 ], [ 7.769930595286951, 44.685738282133585 ], [ 7.770039040780037, 44.68566346280754 ], [ 7.771536526343554, 44.684630280752309 ], [ 7.774536754859818, 44.683109606814547 ], [ 7.780672182623136, 44.680096497500074 ], [ 7.780755584029803, 44.680110212847289 ], [ 7.780964935164512, 44.680144644133122 ], [ 7.781079592469635, 44.680183387408682 ], [ 7.781171277827972, 44.680214368370407 ], [ 7.78124331954361, 44.680253484837927 ], [ 7.78177166160256, 44.68054036042836 ], [ 7.782542790247098, 44.681093222784767 ], [ 7.783287424878956, 44.681731455480701 ], [ 7.783321801178544, 44.681763920728805 ], [ 7.783602983378938, 44.68204076133339 ], [ 7.783838477657503, 44.682281822534925 ], [ 7.784021115556083, 44.682486331500876 ], [ 7.784156682053158, 44.682640820370651 ], [ 7.784300837769863, 44.6827031681918 ], [ 7.784370044539799, 44.682733099746329 ], [ 7.786972107536802, 44.68371952978935 ], [ 7.78781588644733, 44.684007567027351 ], [ 7.788659155581549, 44.684282078204241 ], [ 7.78944875581424, 44.684502014207922 ], [ 7.790093583012485, 44.684630382405764 ], [ 7.790380742485362, 44.684682927898763 ], [ 7.81063232712145, 44.686799666939848 ], [ 7.815633522170567, 44.685946923858076 ], [ 7.833332149178471, 44.681916019233476 ], [ 7.845814525126955, 44.678903429376057 ], [ 7.846104952046838, 44.678790899481015 ], [ 7.847153533700085, 44.678770577769377 ], [ 7.851561222806163, 44.679089501958636 ], [ 7.85251902736631, 44.67920715041739 ], [ 7.85424040151875, 44.679424822053939 ], [ 7.855285423101511, 44.679556954703045 ], [ 7.855380301791575, 44.679568953512565 ], [ 7.857011234484234, 44.679895894209587 ], [ 7.857557208391386, 44.680005338187627 ], [ 7.859043660205903, 44.68030329383371 ], [ 7.860674105213849, 44.680354840387025 ], [ 7.861333170565676, 44.680375668443958 ], [ 7.867080461093994, 44.676516819690207 ], [ 7.879282218509794, 44.669012211047132 ], [ 7.88615755709457, 44.667058454984854 ], [ 7.887135606248766, 44.666820044634107 ], [ 7.889495914515275, 44.666244740176772 ], [ 7.889793474583678, 44.666765268807204 ], [ 7.890192785838011, 44.668167473523411 ], [ 7.890207179374081, 44.668704197824262 ], [ 7.889893054882229, 44.669916075435076 ], [ 7.889338275538299, 44.670679967194062 ], [ 7.889797643801889, 44.674867427038336 ], [ 7.889874374133407, 44.675161571739785 ], [ 7.889964806428268, 44.675508220237752 ], [ 7.890105482803702, 44.675698637488317 ], [ 7.892623285123284, 44.678225732959753 ], [ 7.893358653487724, 44.678867530030679 ], [ 7.894407425374326, 44.679615880221519 ], [ 7.894805774695407, 44.679817785659864 ], [ 7.895475392820667, 44.679999816773098 ], [ 7.899086121156063, 44.676726308650743 ], [ 7.901654028611832, 44.674392439922073 ], [ 7.90181730398325, 44.673993396153691 ], [ 7.901816267985656, 44.673701838257394 ], [ 7.901220209494138, 44.673145929647369 ], [ 7.898115051913125, 44.670815910219602 ], [ 7.898076152811623, 44.664401357531453 ], [ 7.898664805354776, 44.663520296141343 ], [ 7.902143548947157, 44.66186935030909 ], [ 7.904350060717538, 44.656736600333538 ], [ 7.904666782834088, 44.635279028285929 ], [ 7.904437815779127, 44.634988754303123 ], [ 7.904108847009713, 44.634337429950698 ], [ 7.903796475011361, 44.633612498450297 ], [ 7.903719511808294, 44.633113322724142 ], [ 7.903881152078267, 44.623514325834499 ], [ 7.904582020140174, 44.621797156791402 ], [ 7.904381247584395, 44.617870087531372 ], [ 7.903285127533905, 44.616005060947046 ], [ 7.901774177448746, 44.614545649881435 ], [ 7.901348998473948, 44.614356775528393 ], [ 7.901264044597438, 44.61432018130467 ], [ 7.894151676598929, 44.611564311111174 ], [ 7.893638841419974, 44.611451295651541 ], [ 7.892142207570794, 44.611279266541707 ], [ 7.891790740239671, 44.611329856133239 ], [ 7.888497089924648, 44.612279123872923 ], [ 7.886853116647805, 44.612879772436472 ], [ 7.88608486491209, 44.613448437648501 ], [ 7.885851620208928, 44.613651499694839 ], [ 7.885691162245439, 44.613791194330013 ], [ 7.879618518704665, 44.620843683457402 ], [ 7.878675277627769, 44.62404830148548 ], [ 7.876685635438609, 44.624059331584149 ], [ 7.871593324367737, 44.623970471797222 ], [ 7.870014393808251, 44.624273517720432 ], [ 7.868019311674797, 44.624285268410894 ], [ 7.864086482014237, 44.624057162033054 ], [ 7.858843829276871, 44.622483474527236 ], [ 7.858938000888801, 44.621301856251613 ], [ 7.859123199937549, 44.618979823312628 ], [ 7.8593388240739, 44.616558765702571 ], [ 7.859520516804967, 44.614518574636811 ], [ 7.859935188926018, 44.61081820261613 ], [ 7.849364246393832, 44.603978361101007 ], [ 7.835988407115999, 44.596171578721389 ], [ 7.824242012706408, 44.587590129133318 ], [ 7.822348373879501, 44.586337179112491 ], [ 7.81823039293026, 44.58919356802285 ], [ 7.818035758098445, 44.58936267497679 ], [ 7.818005502156068, 44.589389407266417 ], [ 7.817720510331659, 44.589717519434217 ], [ 7.817664827933942, 44.589782106068228 ], [ 7.817501458777434, 44.590026805181544 ], [ 7.817377387500558, 44.590216411236284 ], [ 7.817357670427413, 44.590285392503972 ], [ 7.817321512409703, 44.590417358151193 ], [ 7.817336102606676, 44.590921680555688 ], [ 7.817343687156162, 44.591035217266537 ], [ 7.817386307704427, 44.591445897363549 ], [ 7.817407799223718, 44.591644950996134 ], [ 7.817417746222464, 44.591741716108956 ], [ 7.817416849563369, 44.591878856962076 ], [ 7.817413746253974, 44.592112870224931 ], [ 7.817408235395503, 44.592409802519256 ], [ 7.817406968334971, 44.592475255882192 ], [ 7.817353472695745, 44.592778481843077 ], [ 7.817321492882988, 44.592956060667603 ], [ 7.817309445866777, 44.593011956013783 ], [ 7.817224756590449, 44.593401628907259 ], [ 7.817204542504725, 44.593450389759141 ], [ 7.817188919738741, 44.593487959391325 ], [ 7.817147383530072, 44.593584321775971 ], [ 7.816738720957354, 44.594264391835566 ], [ 7.816620614397924, 44.594425348736408 ], [ 7.816522147111312, 44.594559237654302 ], [ 7.816415713955601, 44.594703124064623 ], [ 7.816249720020217, 44.594927333004819 ], [ 7.81622117139631, 44.594965665158547 ], [ 7.815122999182909, 44.59633170469224 ], [ 7.814837382072706, 44.596656829237418 ], [ 7.811638896854309, 44.599995905930328 ], [ 7.811610041709434, 44.600021000887757 ], [ 7.811213664284266, 44.600359708706023 ], [ 7.808596850943264, 44.60259267158056 ], [ 7.805988683254855, 44.601156414709934 ], [ 7.804018109407934, 44.600055154478817 ], [ 7.803940450952346, 44.600013595679926 ], [ 7.803381989947588, 44.599716497080728 ], [ 7.795702299846763, 44.601705567869097 ], [ 7.791379798263045, 44.605069081455483 ], [ 7.788515752115118, 44.60699951875165 ], [ 7.789176843074101, 44.608217358078839 ], [ 7.789236813333082, 44.608573590626236 ], [ 7.789611789970384, 44.611491531810984 ], [ 7.789259270723611, 44.613893279818079 ], [ 7.789353731684156, 44.61701010789681 ], [ 7.793695168537778, 44.622101932714358 ], [ 7.801858185897338, 44.626391996154531 ], [ 7.802388721463248, 44.626703653195619 ], [ 7.807066751437656, 44.630128516302015 ], [ 7.807580528156754, 44.630745038425943 ], [ 7.808517936099105, 44.632101709569788 ], [ 7.811879415556338, 44.637466142020656 ], [ 7.811296942117118, 44.643276366591031 ], [ 7.809847020969475, 44.644079744170945 ], [ 7.808384591059619, 44.644834196447952 ], [ 7.806879510016659, 44.645552177122561 ], [ 7.805780048947051, 44.646071841331647 ], [ 7.803783577459559, 44.646996204275261 ], [ 7.802482657604131, 44.647554204716123 ], [ 7.801264046524794, 44.648257981276736 ], [ 7.798997846446725, 44.649079529036712 ], [ 7.797499997559184, 44.649455364671724 ], [ 7.795110754850374, 44.64996132759314 ], [ 7.792838268292272, 44.650364933954513 ], [ 7.789486198481217, 44.650703146581037 ], [ 7.789406330194288, 44.650711203330275 ], [ 7.783669339362095, 44.65095633044448 ], [ 7.782924703556894, 44.650925884990194 ], [ 7.775733891831139, 44.646879074847241 ], [ 7.770007369303372, 44.642446766898338 ], [ 7.769705775974067, 44.639787811268199 ], [ 7.769399719300536, 44.638402628190235 ], [ 7.767070457931392, 44.631864271231699 ], [ 7.764636175348232, 44.627314423834264 ], [ 7.764345478601812, 44.627294858126859 ], [ 7.764283134919298, 44.627291176677097 ], [ 7.764207642288096, 44.627287162044617 ], [ 7.757825769580657, 44.627577211542537 ], [ 7.754070020880294, 44.627829617111537 ], [ 7.749866230349676, 44.628462604730174 ], [ 7.749739586711905, 44.62853399700451 ], [ 7.749628285429462, 44.628785265609906 ], [ 7.74976833979475, 44.633651373666709 ], [ 7.757977874790034, 44.647614453120312 ], [ 7.761571759437304, 44.653676077664151 ], [ 7.762456326316846, 44.654891987956198 ], [ 7.762590564254855, 44.655014467024444 ], [ 7.763204663062279, 44.655547533272184 ], [ 7.763679947045889, 44.655938813690625 ], [ 7.765037966303195, 44.656949964435597 ], [ 7.765214211400268, 44.657067923519783 ], [ 7.763691806810978, 44.666842522080771 ], [ 7.755854448472761, 44.688191969419918 ], [ 7.755800659348757, 44.691238665105125 ], [ 7.75626463756458, 44.694537246483009 ], [ 7.769216856927498, 44.690578354131169 ] ] ] } },
{ "type": "Feature", "properties": { "name": "Diano d'Alba", "docg": "Barolo", "region": "Piemonte" }, "geometry": { "type": "Polygon", "coordinates": [ [ [ 8.040137935897885, 44.672885857829144 ], [ 8.043608586180206, 44.66529884321023 ], [ 8.050681690682518, 44.663451873450583 ], [ 8.050797833338105, 44.663477332709839 ], [ 8.051246365226689, 44.663553074072802 ], [ 8.055130469815794, 44.662158377456457 ], [ 8.05554995812413, 44.661887267468579 ], [ 8.061908068527915, 44.656952354524194 ], [ 8.06299651015482, 44.655300349056013 ], [ 8.058905724314958, 44.654231458339659 ], [ 8.057899674141991, 44.653930587016326 ], [ 8.057813198134875, 44.653895964935394 ], [ 8.057304067606728, 44.653691616155484 ], [ 8.056948490778106, 44.653477117213711 ], [ 8.056426314455061, 44.653135205426693 ], [ 8.056349128132354, 44.65305453578717 ], [ 8.056231600594991, 44.652931303077025 ], [ 8.054347696594727, 44.650952939941291 ], [ 8.053993666194602, 44.650256812719732 ], [ 8.055252704704566, 44.648831353910559 ], [ 8.055418317323323, 44.648679677434316 ], [ 8.056990223025176, 44.64735132856957 ], [ 8.058467330026534, 44.647467037422011 ], [ 8.060631297326939, 44.647561370778035 ], [ 8.06390303498077, 44.647385686739113 ], [ 8.066082435034076, 44.647133449142189 ], [ 8.073984270675853, 44.643065694474373 ], [ 8.077377123273836, 44.640775044643753 ], [ 8.07814008175443, 44.640196053817938 ], [ 8.081018184593388, 44.635793646517094 ], [ 8.075284118221752, 44.636846568316507 ], [ 8.056633916912626, 44.647523924939414 ], [ 8.053820313242733, 44.649315933399791 ], [ 8.049859910381008, 44.650789659931029 ], [ 8.04934590798716, 44.65091591619943 ], [ 8.048938660141205, 44.650868863408071 ], [ 8.048674000613547, 44.650838274243014 ], [ 8.048050587210739, 44.650765582423602 ], [ 8.046453280044325, 44.648744732981861 ], [ 8.046209750758106, 44.64838260966274 ], [ 8.046073674387173, 44.648052874049114 ], [ 8.045957198139901, 44.64775482503844 ], [ 8.044138934492088, 44.642207631508143 ], [ 8.044021598491028, 44.641842059863535 ], [ 8.043955507079874, 44.641494868028154 ], [ 8.043892688513557, 44.640981242324564 ], [ 8.038376018393828, 44.638076657577855 ], [ 8.038162112489697, 44.637930808366328 ], [ 8.038230652064565, 44.637431743332542 ], [ 8.038363284377084, 44.636987258942121 ], [ 8.038409708769072, 44.636753596980505 ], [ 8.038477161635594, 44.636403095051548 ], [ 8.038459670214657, 44.6358042519226 ], [ 8.038368850020245, 44.634957249912198 ], [ 8.038180412421152, 44.634438026299982 ], [ 8.037890627583634, 44.633854931133065 ], [ 8.037493091671971, 44.633234922518348 ], [ 8.031641036764777, 44.629242386411384 ], [ 8.029988397194986, 44.629358889016167 ], [ 8.028706504426026, 44.629496540957796 ], [ 8.013934037397638, 44.628523997365996 ], [ 8.008405753479526, 44.628156323712957 ], [ 8.007430862957007, 44.63195584164216 ], [ 7.994323761568288, 44.63749925418945 ], [ 7.985416821618153, 44.643118994602929 ], [ 7.982674372650283, 44.644228874823426 ], [ 7.98222707457179, 44.644350958037094 ], [ 7.978911253318842, 44.647958579218319 ], [ 7.980131481233274, 44.655094054460989 ], [ 7.989356439535629, 44.649788637865917 ], [ 7.995366617010534, 44.650165739611502 ], [ 8.006111384212282, 44.652523887812421 ], [ 8.007085661557815, 44.6528924540482 ], [ 8.007417594100497, 44.653115885398634 ], [ 8.007371688828833, 44.653565599355858 ], [ 8.007217459775042, 44.653919852114512 ], [ 8.007148861610094, 44.657430184767783 ], [ 8.010503043306809, 44.65866110694359 ], [ 8.01935933187289, 44.662099862101215 ], [ 8.020012583400769, 44.666381601347844 ], [ 8.028992183012669, 44.670518394108896 ], [ 8.030326108608604, 44.671002337132236 ], [ 8.039642059327759, 44.674155365760399 ], [ 8.03968285208232, 44.674062882980188 ], [ 8.039790339678525, 44.673819043234545 ], [ 8.040137935897885, 44.672885857829144 ] ] ] } },
{ "type": "Feature", "properties": { "name": "Grinzane Cavour", "docg": "Barolo", "region": "Piemonte" }, "geometry": { "type": "Polygon", "coordinates": [ [ [ 7.993776025491451, 44.667976724072631 ], [ 7.996517332549265, 44.668495701095807 ], [ 7.99846563277222, 44.668584814149632 ], [ 7.998654832404761, 44.668563297435071 ], [ 7.998906456271631, 44.668534680084818 ], [ 8.001992855263712, 44.667661459264359 ], [ 8.002183976203693, 44.667528078425072 ], [ 8.00284740241255, 44.667047748905155 ], [ 8.004385422447736, 44.665886373542762 ], [ 8.004843439939703, 44.66553438593867 ], [ 8.010419167911246, 44.660024256458179 ], [ 8.010536627902436, 44.65981465658254 ], [ 8.010561869532156, 44.659768924990722 ], [ 8.010647589204092, 44.659504082837252 ], [ 8.010674347584326, 44.659135227780126 ], [ 8.010503043306809, 44.65866110694359 ], [ 8.007148861610094, 44.657430184767783 ], [ 8.007217459775042, 44.653919852114512 ], [ 8.007371688828833, 44.653565599355858 ], [ 8.007417594100497, 44.653115885398634 ], [ 8.007085661557815, 44.6528924540482 ], [ 8.006111384212282, 44.652523887812421 ], [ 7.995366617010534, 44.650165739611502 ], [ 7.989356439535629, 44.649788637865917 ], [ 7.980131481233274, 44.655094054460989 ], [ 7.980192569235756, 44.660973611547249 ], [ 7.980218259966267, 44.661298297161601 ], [ 7.980221333122801, 44.661333958978865 ], [ 7.98027438692094, 44.661640753484889 ], [ 7.980281560011734, 44.661676465412206 ], [ 7.980595828371703, 44.662183287384345 ], [ 7.98299912489138, 44.665589323265401 ], [ 7.987918116928921, 44.671323055054422 ], [ 7.988357589869427, 44.671196431832797 ], [ 7.988721082256964, 44.671082615234354 ], [ 7.993776025491451, 44.667976724072631 ] ] ] } },
{ "type": "Feature", "properties": { "name": "La Morra", "docg": "Barolo", "region": "Piemonte" }, "geometry": { "type": "Polygon", "coordinates": [ [ [ 7.917060975429914, 44.681554788007077 ], [ 7.918525465437658, 44.680346470414101 ], [ 7.919021536470785, 44.679221362609191 ], [ 7.919076295089379, 44.679064381899622 ], [ 7.919234365072247, 44.678611221841436 ], [ 7.918396577147969, 44.67720793871095 ], [ 7.91709936276475, 44.675854296186465 ], [ 7.916835063932145, 44.675645482933049 ], [ 7.915439429019452, 44.672750729717251 ], [ 7.91561209848325, 44.669115430453409 ], [ 7.917477361979611, 44.6640647771681 ], [ 7.918452227685941, 44.66245360227348 ], [ 7.919156555586495, 44.661609538311772 ], [ 7.923256250007756, 44.658128359456292 ], [ 7.923775709275138, 44.657768667876439 ], [ 7.924239418294497, 44.657492175108025 ], [ 7.924407401518249, 44.657392014461529 ], [ 7.925791656669701, 44.656644334442412 ], [ 7.92602102647449, 44.656569973693358 ], [ 7.926426041054413, 44.656438718238967 ], [ 7.926999519623426, 44.656417116972001 ], [ 7.927557089481615, 44.656417814632739 ], [ 7.928713135492672, 44.656509722561601 ], [ 7.932170018192062, 44.656878910739138 ], [ 7.934534943929317, 44.65780652128938 ], [ 7.934545732251651, 44.658121710304279 ], [ 7.934549360188388, 44.658225265992442 ], [ 7.934680391275847, 44.658584810115016 ], [ 7.934819663381053, 44.658961481567154 ], [ 7.934981198799719, 44.659332075851928 ], [ 7.936050974724513, 44.660093827494322 ], [ 7.936541782649278, 44.660435979136942 ], [ 7.939529979521629, 44.662097675787933 ], [ 7.940540822335016, 44.662633736224379 ], [ 7.945729154485662, 44.665328456361834 ], [ 7.94788068823439, 44.665852416639623 ], [ 7.950370708669755, 44.666365974051523 ], [ 7.951286467034636, 44.66647366451533 ], [ 7.951367167341065, 44.666482672522754 ], [ 7.955022124117598, 44.666597659956267 ], [ 7.9553191390007, 44.666591389414926 ], [ 7.956138234165607, 44.666463846664357 ], [ 7.956887200086193, 44.666290636293631 ], [ 7.957704699583747, 44.665987531024228 ], [ 7.958390065646684, 44.665732719150967 ], [ 7.958837675633539, 44.665530613679287 ], [ 7.959136440363444, 44.665275821581602 ], [ 7.959645399346718, 44.664574122739737 ], [ 7.959768774601764, 44.664016755147998 ], [ 7.959779788742443, 44.663883701297671 ], [ 7.959788880168735, 44.663773866126107 ], [ 7.959624324204874, 44.662991409910759 ], [ 7.959552336681531, 44.662768003063739 ], [ 7.959477692924303, 44.662537770615998 ], [ 7.959487756136428, 44.662162649541706 ], [ 7.959597834618184, 44.661836681969191 ], [ 7.961299430689461, 44.659871626881014 ], [ 7.961459284838233, 44.659697402519129 ], [ 7.961509209600211, 44.659643940887854 ], [ 7.962571468445544, 44.659424041645373 ], [ 7.964514032349309, 44.659306639242047 ], [ 7.964969289004631, 44.659328779361672 ], [ 7.96541713604594, 44.65943635937527 ], [ 7.965663494305972, 44.659501608134363 ], [ 7.966398550022367, 44.659859348965028 ], [ 7.966366198543384, 44.652895705260171 ], [ 7.966496391031767, 44.652554280697515 ], [ 7.966551012940215, 44.652411275853105 ], [ 7.968518703121084, 44.65097519034056 ], [ 7.971670420254084, 44.648721508439529 ], [ 7.972852887888849, 44.642952639882978 ], [ 7.972855601494773, 44.64259707024101 ], [ 7.972845345104979, 44.642437558605792 ], [ 7.972827092619647, 44.642223189594283 ], [ 7.972577745803497, 44.641860856612617 ], [ 7.970608779391027, 44.639097413377243 ], [ 7.969971401715885, 44.638596502946164 ], [ 7.969614624218716, 44.638381719840361 ], [ 7.96894079426316, 44.638074974160169 ], [ 7.967542326401425, 44.637440302183343 ], [ 7.967074409644503, 44.637274027093035 ], [ 7.966372678574846, 44.637074127152438 ], [ 7.965481429453301, 44.636719462238815 ], [ 7.964264522357545, 44.636154786445587 ], [ 7.963481812096665, 44.635413987069263 ], [ 7.962353821281569, 44.633400697725378 ], [ 7.962289715287826, 44.633283097302815 ], [ 7.962129180154343, 44.632962052854296 ], [ 7.96056873099964, 44.629153292987738 ], [ 7.959692829647776, 44.626426583658315 ], [ 7.956805662854555, 44.626746074370281 ], [ 7.956667460944364, 44.626980146069961 ], [ 7.956122288475686, 44.627429291285672 ], [ 7.955662880527886, 44.627785180848072 ], [ 7.955515194092747, 44.627812378882673 ], [ 7.955359706293774, 44.627840929557436 ], [ 7.947867565645365, 44.627493082322474 ], [ 7.943728356102422, 44.625645364902816 ], [ 7.931225639052093, 44.621779520387832 ], [ 7.926016362807403, 44.620231736827627 ], [ 7.922063356622695, 44.619177214418187 ], [ 7.917134062064966, 44.622002802253199 ], [ 7.916558641189417, 44.622248928358673 ], [ 7.915907645610387, 44.622494820273822 ], [ 7.915485969409479, 44.622652856089267 ], [ 7.914812287203892, 44.62278523612315 ], [ 7.912884093271053, 44.623141245948652 ], [ 7.911974024858383, 44.623284330377487 ], [ 7.909717313702113, 44.623313603723027 ], [ 7.908608339421288, 44.62328822039045 ], [ 7.907686874759897, 44.623257181225362 ], [ 7.906893974823625, 44.623132574407663 ], [ 7.906409379758604, 44.62291608798796 ], [ 7.904582020140174, 44.621797156791402 ], [ 7.903881152078267, 44.623514325834499 ], [ 7.903719511808294, 44.633113322724142 ], [ 7.903796475011361, 44.633612498450297 ], [ 7.904108847009713, 44.634337429950698 ], [ 7.904437815779127, 44.634988754303123 ], [ 7.904666782834088, 44.635279028285929 ], [ 7.904350060717538, 44.656736600333538 ], [ 7.902143548947157, 44.66186935030909 ], [ 7.898664805354776, 44.663520296141343 ], [ 7.898076152811623, 44.664401357531453 ], [ 7.898115051913125, 44.670815910219602 ], [ 7.901220209494138, 44.673145929647369 ], [ 7.901816267985656, 44.673701838257394 ], [ 7.90181730398325, 44.673993396153691 ], [ 7.901654028611832, 44.674392439922073 ], [ 7.899086121156063, 44.676726308650743 ], [ 7.895475392820667, 44.679999816773098 ], [ 7.897168287800334, 44.681114457200202 ], [ 7.899086543079921, 44.68215923219396 ], [ 7.900789437378127, 44.682814803854832 ], [ 7.902000852021199, 44.682956990359173 ], [ 7.91131127884778, 44.68379784135896 ], [ 7.91412161364473, 44.685616062654894 ], [ 7.917060975429914, 44.681554788007077 ] ] ] } },
{ "type": "Feature", "properties": { "name": "Monforte d'Alba", "docg": "Barolo", "region": "Piemonte" }, "geometry": { "type": "Polygon", "coordinates": [ [ [ 7.986116875170934, 44.620632638991935 ], [ 7.985522853022742, 44.616495244039562 ], [ 7.988792969801162, 44.604492399199792 ], [ 7.988988904890276, 44.603913476963896 ], [ 7.993616839703822, 44.592102675475452 ], [ 7.993770709678302, 44.591901482040647 ], [ 7.99794390268321, 44.587986060039455 ], [ 7.999648582003429, 44.586736090626346 ], [ 7.999787567429792, 44.586581274731167 ], [ 8.000053529361509, 44.586285014103254 ], [ 8.002238837552405, 44.583337800564728 ], [ 8.004910105676226, 44.578333217374237 ], [ 8.005297985005427, 44.577328314585166 ], [ 8.005294183566809, 44.577089705158933 ], [ 8.002897207361769, 44.569025071358034 ], [ 8.000293342048961, 44.564113926881376 ], [ 8.000156359942567, 44.563955182287351 ], [ 7.998276661193755, 44.562273242484743 ], [ 7.997988531626243, 44.562117667955796 ], [ 7.997478995963035, 44.562045677581175 ], [ 7.997144795212936, 44.562029248433817 ], [ 7.996685026006491, 44.562061217787445 ], [ 7.996243553236721, 44.561794764167217 ], [ 7.995952373701127, 44.561577642032951 ], [ 7.995590156761915, 44.561223358294235 ], [ 7.994811696391521, 44.560338769206062 ], [ 7.992112572280989, 44.556889459450566 ], [ 7.991840559566945, 44.556342462107267 ], [ 7.991827721013895, 44.556288326835187 ], [ 7.991538107873136, 44.557154511254225 ], [ 7.99142809155503, 44.557441621233565 ], [ 7.991121630759006, 44.557803508973578 ], [ 7.991009226961011, 44.557850091086834 ], [ 7.990758614543894, 44.557953346621979 ], [ 7.979780650859852, 44.561641392934476 ], [ 7.97509145817958, 44.562796733169129 ], [ 7.974378121975438, 44.562902850713883 ], [ 7.973969016180908, 44.562894677295922 ], [ 7.973560935091299, 44.562693400563361 ], [ 7.973161711978589, 44.562369780220635 ], [ 7.972987251092735, 44.562035975144603 ], [ 7.968392775071115, 44.560499283855783 ], [ 7.963567055047669, 44.56104524054853 ], [ 7.958443345879567, 44.563006196208605 ], [ 7.954854864705065, 44.564413814735332 ], [ 7.94138154258549, 44.564235704808532 ], [ 7.934999968192683, 44.574646329409028 ], [ 7.932116217843332, 44.581668320779706 ], [ 7.931986014679357, 44.581878652620553 ], [ 7.932196071104149, 44.582393853030801 ], [ 7.933449339756981, 44.584539068064728 ], [ 7.933702814548143, 44.5849510515148 ], [ 7.934067003356525, 44.585292034753621 ], [ 7.935757060675106, 44.586325084333751 ], [ 7.935967063771723, 44.586444078026013 ], [ 7.937764840624955, 44.587054963188997 ], [ 7.942249860617623, 44.588082368007449 ], [ 7.943246802887296, 44.587835030187158 ], [ 7.945137750003829, 44.587415902934275 ], [ 7.945602879288096, 44.587384171943313 ], [ 7.94605587172933, 44.587482916321036 ], [ 7.948451644331802, 44.588585324387303 ], [ 7.950096400854838, 44.590184903983783 ], [ 7.950774959694095, 44.591397459631224 ], [ 7.950475548481337, 44.592348970472592 ], [ 7.949216241906248, 44.593998348443186 ], [ 7.948651443331296, 44.594757951509699 ], [ 7.947717204656396, 44.596253165051877 ], [ 7.9475566341408, 44.596575772389969 ], [ 7.946591914751573, 44.59912808041468 ], [ 7.946529997068764, 44.599331595881935 ], [ 7.946451295765449, 44.5995904382088 ], [ 7.947891689531737, 44.604564077378264 ], [ 7.948110953722364, 44.60491719317195 ], [ 7.958182753581157, 44.617689476390339 ], [ 7.960438648615002, 44.620352229805697 ], [ 7.965042803787981, 44.616926566990927 ], [ 7.974285836135494, 44.618042246356005 ], [ 7.982399339812527, 44.620532018779905 ], [ 7.985391885908133, 44.621548952471997 ], [ 7.986116875170934, 44.620632638991935 ] ] ] } },
{ "type": "Feature", "properties": { "name": "Neive", "docg": "Barbaresco", "region": "Piemonte" }, "geometry": { "type": "Polygon", "coordinates": [ [ [ 8.111962131609916, 44.748775563163747 ], [ 8.112894284372038, 44.748439092480716 ], [ 8.115448348192425, 44.747743756656917 ], [ 8.115540682436757, 44.747804620784272 ], [ 8.11567873738419, 44.747907281050445 ], [ 8.115965838401834, 44.74812151743243 ], [ 8.116484922095959, 44.748620665466362 ], [ 8.117542074045364, 44.750150211331416 ], [ 8.117628782829973, 44.750525546722749 ], [ 8.117667849558357, 44.750692273390484 ], [ 8.118130398538234, 44.751713103662929 ], [ 8.11987689305564, 44.75171756225118 ], [ 8.120670353207384, 44.751539141713494 ], [ 8.122903074174722, 44.750692099060458 ], [ 8.133196137238766, 44.746672029508936 ], [ 8.13620607887829, 44.743459741805793 ], [ 8.137662757553477, 44.738196849404225 ], [ 8.136543445927666, 44.737927331428033 ], [ 8.135866501632748, 44.737611627045538 ], [ 8.135766311230515, 44.73750284899625 ], [ 8.135537138966686, 44.737253544019332 ], [ 8.135536598056445, 44.736866445940521 ], [ 8.136039863586722, 44.73342134819481 ], [ 8.136304557700802, 44.732739286106579 ], [ 8.1367830386877, 44.732047421840022 ], [ 8.137161962356721, 44.731688932400921 ], [ 8.137445888696675, 44.731439011721726 ], [ 8.138457823148384, 44.730779436485889 ], [ 8.139259421045237, 44.730285859173087 ], [ 8.139318520746233, 44.730246804122039 ], [ 8.139410303360512, 44.730185452571135 ], [ 8.139505044996415, 44.730122036498933 ], [ 8.139538529923962, 44.730099562388276 ], [ 8.139576939697708, 44.730073703582853 ], [ 8.139645308986857, 44.730027627055676 ], [ 8.139809347029647, 44.729871297450273 ], [ 8.14063587798096, 44.729057708207321 ], [ 8.143791182497926, 44.725682527336559 ], [ 8.145452955117278, 44.723661750900966 ], [ 8.149175709871336, 44.718900513900202 ], [ 8.150202416125779, 44.717009456844018 ], [ 8.152229928782603, 44.713153539122189 ], [ 8.151228573528812, 44.708946533779759 ], [ 8.146589375268851, 44.70644083475252 ], [ 8.142897507802504, 44.702960208760409 ], [ 8.142044722470995, 44.698709788506925 ], [ 8.140425341271765, 44.69767588543516 ], [ 8.140268969367471, 44.697603349061588 ], [ 8.139341384272655, 44.697213069071303 ], [ 8.13898687516696, 44.69736793779478 ], [ 8.138694893939904, 44.697667306310279 ], [ 8.138419454582175, 44.698448444863047 ], [ 8.1332951878711, 44.701105849786138 ], [ 8.123633389634097, 44.705852872833617 ], [ 8.117817979646762, 44.710345246612711 ], [ 8.113422865127989, 44.710981876090486 ], [ 8.108871561719662, 44.708556386354971 ], [ 8.10873411442193, 44.708522860170831 ], [ 8.105171507774783, 44.70765380931168 ], [ 8.105020732364917, 44.707617028787169 ], [ 8.104043071587384, 44.707573346877524 ], [ 8.102309786843136, 44.70937367780833 ], [ 8.088928670194116, 44.706503987003614 ], [ 8.089687468312077, 44.707369755262455 ], [ 8.089924237355881, 44.707641724470477 ], [ 8.090173930404246, 44.70794528195178 ], [ 8.090591020683561, 44.708668798690155 ], [ 8.090659720510962, 44.708847879946681 ], [ 8.090822513592197, 44.709278297688911 ], [ 8.091268154271912, 44.710686522762309 ], [ 8.091263463084912, 44.71071894798488 ], [ 8.091183710577361, 44.711207675932499 ], [ 8.090979449054753, 44.711579633278831 ], [ 8.09036518986961, 44.712061776660981 ], [ 8.089877483598046, 44.712330728378596 ], [ 8.088987781456618, 44.712869087845839 ], [ 8.087874562507446, 44.71665468981945 ], [ 8.087870081050031, 44.716700854149174 ], [ 8.08783912636305, 44.717050501711917 ], [ 8.088423795488239, 44.719215729494032 ], [ 8.088760688687138, 44.720276187131311 ], [ 8.089403701096572, 44.721870206756684 ], [ 8.090173415732968, 44.7234382346915 ], [ 8.092030794791841, 44.724650337322842 ], [ 8.093162906360709, 44.727909142614287 ], [ 8.093713596210625, 44.731257869244111 ], [ 8.093776143833033, 44.734733230038884 ], [ 8.093727217723595, 44.735565551375707 ], [ 8.093511944539221, 44.736738642670787 ], [ 8.093318914945117, 44.737371774615838 ], [ 8.092434693428892, 44.739421760574245 ], [ 8.091854885391049, 44.74022734802071 ], [ 8.091134707790758, 44.740091089414221 ], [ 8.090554239793468, 44.739879423684087 ], [ 8.087474031494164, 44.737937358060364 ], [ 8.085248907931298, 44.736196700761667 ], [ 8.083976763978544, 44.735145137967926 ], [ 8.084332058114541, 44.73897447310317 ], [ 8.081725588588625, 44.742378898215904 ], [ 8.081036399671016, 44.742503885295768 ], [ 8.077369130588011, 44.746786396604129 ], [ 8.07506155366193, 44.751093313905955 ], [ 8.080939653100893, 44.750771111928898 ], [ 8.082090974150317, 44.750603549447369 ], [ 8.08332836772157, 44.749866692193216 ], [ 8.083501534998041, 44.74973360285761 ], [ 8.084441225414267, 44.749062366187665 ], [ 8.085371541725092, 44.74842166169239 ], [ 8.086208969820204, 44.748806387236449 ], [ 8.088512551314274, 44.749864629583591 ], [ 8.090056274013556, 44.750687153943403 ], [ 8.097568336839959, 44.756961634048366 ], [ 8.111962131609916, 44.748775563163747 ] ] ] } },
{ "type": "Feature", "properties": { "name": "Novello", "docg": "Barolo", "region": "Piemonte" }, "geometry": { "type": "Polygon", "coordinates": [ [ [ 7.924598057964839, 44.609554991399989 ], [ 7.928038078427869, 44.609258747431014 ], [ 7.929377942967445, 44.608956250869248 ], [ 7.930306757813414, 44.608637592480285 ], [ 7.930501517796106, 44.608570679658044 ], [ 7.93531174239206, 44.606689105006545 ], [ 7.945624703069138, 44.600991712674961 ], [ 7.946451295765449, 44.5995904382088 ], [ 7.946529997068764, 44.599331595881935 ], [ 7.946591914751573, 44.59912808041468 ], [ 7.9475566341408, 44.596575772389969 ], [ 7.947717204656396, 44.596253165051877 ], [ 7.948651443331296, 44.594757951509699 ], [ 7.949216241906248, 44.593998348443186 ], [ 7.950475548481337, 44.592348970472592 ], [ 7.950774959694095, 44.591397459631224 ], [ 7.950096400854838, 44.590184903983783 ], [ 7.948451644331802, 44.588585324387303 ], [ 7.94605587172933, 44.587482916321036 ], [ 7.945602879288096, 44.587384171943313 ], [ 7.945137750003829, 44.587415902934275 ], [ 7.943246802887296, 44.587835030187158 ], [ 7.942249860617623, 44.588082368007449 ], [ 7.937764840624955, 44.587054963188997 ], [ 7.935967063771723, 44.586444078026013 ], [ 7.935757060675106, 44.586325084333751 ], [ 7.934067003356525, 44.585292034753621 ], [ 7.933702814548143, 44.5849510515148 ], [ 7.933449339756981, 44.584539068064728 ], [ 7.932196071104149, 44.582393853030801 ], [ 7.931986014679357, 44.581878652620553 ], [ 7.932116217843332, 44.581668320779706 ], [ 7.927621896431218, 44.579492610547618 ], [ 7.920941932639002, 44.577035026274437 ], [ 7.915618105602737, 44.574681690667354 ], [ 7.914067199868435, 44.572418613453323 ], [ 7.914134518785642, 44.572195624150083 ], [ 7.914173391321772, 44.571537859396791 ], [ 7.914160634168944, 44.570786018246039 ], [ 7.913896256338733, 44.570040800312768 ], [ 7.913513333671474, 44.569384483334019 ], [ 7.913166967014252, 44.568836535796571 ], [ 7.912969585168936, 44.568527620471805 ], [ 7.912104342471327, 44.568016180055785 ], [ 7.911484394459793, 44.567687698322423 ], [ 7.91145350973847, 44.567672393026903 ], [ 7.911381915800579, 44.567680958031218 ], [ 7.900780343488925, 44.574141985131263 ], [ 7.896919019190212, 44.582733486680546 ], [ 7.896359300107695, 44.584146160191523 ], [ 7.895511129373199, 44.586798193048672 ], [ 7.895052190343748, 44.588247647772512 ], [ 7.894853945647974, 44.589229616486655 ], [ 7.894843956373562, 44.593980227760646 ], [ 7.89496940051295, 44.595023166386312 ], [ 7.894984670245934, 44.59514745198878 ], [ 7.895003353564998, 44.595239013069516 ], [ 7.89510042323245, 44.595710534011651 ], [ 7.895134444961875, 44.595851129960259 ], [ 7.895846503178589, 44.59602019764138 ], [ 7.895941913122254, 44.596041795328084 ], [ 7.897203518936244, 44.596267116060552 ], [ 7.898109320236752, 44.596496050967502 ], [ 7.89882816347141, 44.596701410630743 ], [ 7.899245657077651, 44.596840486289324 ], [ 7.901141956658703, 44.597729928149278 ], [ 7.902715205865491, 44.598476313772991 ], [ 7.918186946668648, 44.606451558514927 ], [ 7.919005053068251, 44.607639119724318 ], [ 7.924598057964839, 44.609554991399989 ] ] ] } },
{ "type": "Feature", "properties": { "name": "Roddi", "docg": "Barolo", "region": "Piemonte" }, "geometry": { "type": "Polygon", "coordinates": [ [ [ 7.993673633367614, 44.690706437394496 ], [ 7.993980486947084, 44.689543329282664 ], [ 7.993671048300974, 44.689306551238275 ], [ 7.989882799916945, 44.686701090173372 ], [ 7.987519446828562, 44.685578867848811 ], [ 7.983691556555931, 44.675759703554839 ], [ 7.982754803291144, 44.672404278678641 ], [ 7.982549584724381, 44.670874725774361 ], [ 7.982138833756267, 44.668530453113057 ], [ 7.981928657336545, 44.668195500359396 ], [ 7.967665275385542, 44.660419936403095 ], [ 7.966398550022367, 44.659859348965028 ], [ 7.965663494305972, 44.659501608134363 ], [ 7.96541713604594, 44.65943635937527 ], [ 7.964969289004631, 44.659328779361672 ], [ 7.964514032349309, 44.659306639242047 ], [ 7.962571468445544, 44.659424041645373 ], [ 7.961509209600211, 44.659643940887854 ], [ 7.961459284838233, 44.659697402519129 ], [ 7.961299430689461, 44.659871626881014 ], [ 7.959597834618184, 44.661836681969191 ], [ 7.959487756136428, 44.662162649541706 ], [ 7.959477692924303, 44.662537770615998 ], [ 7.959552336681531, 44.662768003063739 ], [ 7.959624324204874, 44.662991409910759 ], [ 7.959788880168735, 44.663773866126107 ], [ 7.959779788742443, 44.663883701297671 ], [ 7.959768774601764, 44.664016755147998 ], [ 7.959645399346718, 44.664574122739737 ], [ 7.959136440363444, 44.665275821581602 ], [ 7.958837675633539, 44.665530613679287 ], [ 7.958390065646684, 44.665732719150967 ], [ 7.957704699583747, 44.665987531024228 ], [ 7.956887200086193, 44.666290636293631 ], [ 7.956138234165607, 44.666463846664357 ], [ 7.9553191390007, 44.666591389414926 ], [ 7.955022124117598, 44.666597659956267 ], [ 7.956173687887135, 44.670146062967284 ], [ 7.956175758337912, 44.670492674521476 ], [ 7.956068100388159, 44.670757254867873 ], [ 7.954205193538391, 44.673985571044774 ], [ 7.953803971446686, 44.674504023967117 ], [ 7.950564256277968, 44.675685114639514 ], [ 7.943977048502187, 44.676839714070667 ], [ 7.939668440125379, 44.679036868356327 ], [ 7.939644398144558, 44.679642917254363 ], [ 7.939588805367334, 44.681043386320482 ], [ 7.939576568460599, 44.681253510521906 ], [ 7.939477536276718, 44.682843081890624 ], [ 7.938034232931933, 44.685696907878857 ], [ 7.936951645920187, 44.687683860042419 ], [ 7.936860296405674, 44.687851044869639 ], [ 7.954910501678449, 44.690945098592287 ], [ 7.967767242744652, 44.691492471597343 ], [ 7.968428908685721, 44.691142860320248 ], [ 7.969118075007294, 44.690622437966049 ], [ 7.985943081465888, 44.690660563293115 ], [ 7.993673633367614, 44.690706437394496 ] ] ] } },
{ "type": "Feature", "properties": { "name": "Serralunga d'Alba", "docg": "Barolo", "region": "Piemonte" }, "geometry": { "type": "Polygon", "coordinates": [ [ [ 7.98222707457179, 44.644350958037094 ], [ 7.982674372650283, 44.644228874823426 ], [ 7.985416821618153, 44.643118994602929 ], [ 7.994323761568288, 44.63749925418945 ], [ 8.007430862957007, 44.63195584164216 ], [ 8.008405753479526, 44.628156323712957 ], [ 8.007846524805688, 44.627380843869162 ], [ 8.007722013572929, 44.627377446622134 ], [ 8.005273362802617, 44.627309874911468 ], [ 8.005340063131252, 44.624672750623617 ], [ 8.007209796706677, 44.62030925052391 ], [ 8.009226996665108, 44.617409975547822 ], [ 8.010759333894335, 44.614317416982416 ], [ 8.010341620897744, 44.61226574011193 ], [ 8.010144143926963, 44.61202095335257 ], [ 8.009662323163248, 44.611751207991297 ], [ 8.009607637375183, 44.611745271918046 ], [ 8.009126316318008, 44.61169262802327 ], [ 8.008582506103512, 44.611525864714352 ], [ 8.006815059211695, 44.610641771885085 ], [ 8.006179223784894, 44.610168105544524 ], [ 8.003935145399177, 44.608141021220888 ], [ 8.003635273494586, 44.607760296497844 ], [ 8.003392411927969, 44.607407081480986 ], [ 8.003116767397442, 44.606923047603097 ], [ 8.002961071867952, 44.606494058379234 ], [ 8.002313149651421, 44.604683413159449 ], [ 8.002730780048497, 44.604480812016 ], [ 8.002952823182847, 44.604373911100211 ], [ 8.005286565815911, 44.603259961173833 ], [ 8.006051811831282, 44.602906510086143 ], [ 8.006553583206763, 44.602531988266847 ], [ 8.006658472702277, 44.60245266916926 ], [ 8.009303764937806, 44.59655202328009 ], [ 8.009280877710534, 44.596160220331356 ], [ 8.009229537700046, 44.595660132756805 ], [ 8.009052406301587, 44.59507793794976 ], [ 8.008130909320117, 44.59258521496902 ], [ 8.006625236018781, 44.592041022372918 ], [ 8.006150232924796, 44.591820826556173 ], [ 8.005623193005597, 44.591397624549678 ], [ 8.005392845382399, 44.59105351802976 ], [ 8.005250913503767, 44.590719197261087 ], [ 8.005472324222479, 44.589558039745704 ], [ 8.005784769768496, 44.588617261799648 ], [ 8.005852819443112, 44.588411884710418 ], [ 8.005861204300922, 44.588379906798821 ], [ 8.005889714961317, 44.588244283891818 ], [ 8.003323299211351, 44.586898836647471 ], [ 8.002800570816566, 44.586916784314134 ], [ 7.999529745290766, 44.587477833618124 ], [ 7.998819242607649, 44.587611156542138 ], [ 7.998240000032803, 44.587838718360338 ], [ 7.99794390268321, 44.587986060039455 ], [ 7.993770709678302, 44.591901482040647 ], [ 7.993616839703822, 44.592102675475452 ], [ 7.988988904890276, 44.603913476963896 ], [ 7.988792969801162, 44.604492399199792 ], [ 7.985522853022742, 44.616495244039562 ], [ 7.986116875170934, 44.620632638991935 ], [ 7.985391885908133, 44.621548952471997 ], [ 7.985946068123844, 44.621895991561281 ], [ 7.986049539876456, 44.622175992448618 ], [ 7.986242245141789, 44.62481994037816 ], [ 7.98619115515157, 44.625116554932561 ], [ 7.983004183948245, 44.636750855656359 ], [ 7.979838610071032, 44.642781235692297 ], [ 7.978113044668187, 44.645700595962353 ], [ 7.9775381848899, 44.64617736156351 ], [ 7.978911253318842, 44.647958579218319 ], [ 7.98222707457179, 44.644350958037094 ] ] ] } },
{ "type": "Feature", "properties": { "name": "Treiso", "docg": "Barbaresco", "region": "Piemonte" }, "geometry": { "type": "Polygon", "coordinates": [ [ [ 8.102309786843136, 44.70937367780833 ], [ 8.104043071587384, 44.707573346877524 ], [ 8.101763631784692, 44.70400853999606 ], [ 8.101067940463375, 44.703030822938743 ], [ 8.099850798871614, 44.701364805741306 ], [ 8.098470060415345, 44.699724490900913 ], [ 8.098161615161363, 44.699469989517347 ], [ 8.097822133562065, 44.699156741877438 ], [ 8.097451551645802, 44.698789206973792 ], [ 8.097219232696062, 44.69853530372589 ], [ 8.097005689452807, 44.698241041299696 ], [ 8.099841157490795, 44.694373957495344 ], [ 8.100472677322164, 44.693677190385955 ], [ 8.100765768865871, 44.693494938659818 ], [ 8.101071055970873, 44.693110244399854 ], [ 8.102217444351709, 44.689518317904778 ], [ 8.102552655743279, 44.686352129640106 ], [ 8.102547156603245, 44.686299970574574 ], [ 8.102536482267425, 44.686225996709382 ], [ 8.102502008569155, 44.686108688154526 ], [ 8.10244205810176, 44.6859056708604 ], [ 8.102317438759098, 44.685778656696556 ], [ 8.100959423359553, 44.684624671130713 ], [ 8.099965934122629, 44.683820136514804 ], [ 8.099475007196096, 44.683487686361772 ], [ 8.0985123097594, 44.682759894180457 ], [ 8.098204480119486, 44.682496397334852 ], [ 8.09453490058103, 44.679285048634085 ], [ 8.094143765282931, 44.678930855041713 ], [ 8.093804746575239, 44.678545565179213 ], [ 8.0936573645729, 44.678345050461822 ], [ 8.09359487770155, 44.678259192656917 ], [ 8.09356260095508, 44.677814436472893 ], [ 8.093610939169814, 44.677243168975714 ], [ 8.095226012180364, 44.671462968672657 ], [ 8.095293342718882, 44.671341965652033 ], [ 8.096476859390814, 44.669312312919331 ], [ 8.097800067559771, 44.667598816413424 ], [ 8.098132815834212, 44.667164825504258 ], [ 8.100171903879435, 44.663940048530435 ], [ 8.100264573348939, 44.66365719896892 ], [ 8.100324982350736, 44.663446111133531 ], [ 8.100337178057885, 44.6632706703342 ], [ 8.100149805805032, 44.661977355646449 ], [ 8.100013616332108, 44.661481141532846 ], [ 8.09907305445577, 44.658430932232378 ], [ 8.098853167220099, 44.658123106735459 ], [ 8.098520683245958, 44.658084469240748 ], [ 8.095377794714459, 44.659774565686199 ], [ 8.092338778674717, 44.661744475688373 ], [ 8.091639869315642, 44.662301572477013 ], [ 8.088798242903701, 44.665267718118542 ], [ 8.084618889427768, 44.671279396928711 ], [ 8.073869961332168, 44.68060018764875 ], [ 8.073976423140991, 44.683148723813055 ], [ 8.072697583163341, 44.688787309106608 ], [ 8.072566332466891, 44.68885826070936 ], [ 8.069237756016504, 44.689186770673054 ], [ 8.061498916919298, 44.691036857100848 ], [ 8.061002610041925, 44.691405945731795 ], [ 8.060447108263068, 44.694151603207388 ], [ 8.060844017139621, 44.697314668672242 ], [ 8.061233677852272, 44.698951793748662 ], [ 8.061880078249775, 44.700568537534487 ], [ 8.065876106062651, 44.70270783516888 ], [ 8.07060104720852, 44.704992465454822 ], [ 8.083619462728134, 44.705691803758207 ], [ 8.088928670194116, 44.706503987003614 ], [ 8.102309786843136, 44.70937367780833 ] ] ] } },
{ "type": "Feature", "properties": { "name": "Verduno", "docg": "Barolo", "region": "Piemonte" }, "geometry": { "type": "Polygon", "coordinates": [ [ [ 7.932932209248276, 44.686548020818577 ], [ 7.936860296405674, 44.687851044869639 ], [ 7.936951645920187, 44.687683860042419 ], [ 7.938034232931933, 44.685696907878857 ], [ 7.939477536276718, 44.682843081890624 ], [ 7.939576568460599, 44.681253510521906 ], [ 7.939588805367334, 44.681043386320482 ], [ 7.939644398144558, 44.679642917254363 ], [ 7.939668440125379, 44.679036868356327 ], [ 7.943977048502187, 44.676839714070667 ], [ 7.950564256277968, 44.675685114639514 ], [ 7.953803971446686, 44.674504023967117 ], [ 7.954205193538391, 44.673985571044774 ], [ 7.956068100388159, 44.670757254867873 ], [ 7.956175758337912, 44.670492674521476 ], [ 7.956173687887135, 44.670146062967284 ], [ 7.955022124117598, 44.666597659956267 ], [ 7.951367167341065, 44.666482672522754 ], [ 7.951286467034636, 44.66647366451533 ], [ 7.950370708669755, 44.666365974051523 ], [ 7.94788068823439, 44.665852416639623 ], [ 7.945729154485662, 44.665328456361834 ], [ 7.940540822335016, 44.662633736224379 ], [ 7.939529979521629, 44.662097675787933 ], [ 7.936541782649278, 44.660435979136942 ], [ 7.936050974724513, 44.660093827494322 ], [ 7.934981198799719, 44.659332075851928 ], [ 7.934819663381053, 44.658961481567154 ], [ 7.934680391275847, 44.658584810115016 ], [ 7.934549360188388, 44.658225265992442 ], [ 7.934545732251651, 44.658121710304279 ], [ 7.934534943929317, 44.65780652128938 ], [ 7.932170018192062, 44.656878910739138 ], [ 7.928713135492672, 44.656509722561601 ], [ 7.927557089481615, 44.656417814632739 ], [ 7.926999519623426, 44.656417116972001 ], [ 7.926426041054413, 44.656438718238967 ], [ 7.92602102647449, 44.656569973693358 ], [ 7.925791656669701, 44.656644334442412 ], [ 7.924407401518249, 44.657392014461529 ], [ 7.924239418294497, 44.657492175108025 ], [ 7.923775709275138, 44.657768667876439 ], [ 7.923256250007756, 44.658128359456292 ], [ 7.919156555586495, 44.661609538311772 ], [ 7.918452227685941, 44.66245360227348 ], [ 7.917477361979611, 44.6640647771681 ], [ 7.91561209848325, 44.669115430453409 ], [ 7.915439429019452, 44.672750729717251 ], [ 7.916835063932145, 44.675645482933049 ], [ 7.91709936276475, 44.675854296186465 ], [ 7.918396577147969, 44.67720793871095 ], [ 7.919234365072247, 44.678611221841436 ], [ 7.919076295089379, 44.679064381899622 ], [ 7.919021536470785, 44.679221362609191 ], [ 7.918525465437658, 44.680346470414101 ], [ 7.917060975429914, 44.681554788007077 ], [ 7.91412161364473, 44.685616062654894 ], [ 7.914862371810624, 44.685668107089349 ], [ 7.915277764232003, 44.68561803194811 ], [ 7.916119510369731, 44.685648539440223 ], [ 7.916917794005508, 44.685705634829979 ], [ 7.91888200263431, 44.685854782213262 ], [ 7.923421897360559, 44.686482816747898 ], [ 7.923947813508872, 44.686609549106109 ], [ 7.924179983053938, 44.686665498024148 ], [ 7.924048547695111, 44.687438476240814 ], [ 7.926553437618185, 44.689726124665256 ], [ 7.932932209248276, 44.686548020818577 ] ] ] } }
]
}
